MOZHAETS 4 (RS22)       
1 27939U 03042A   26061.87442041  .00001543  00000+0  24718-3 0  9991
2 27939  98.3425 243.2462 0010243 243.9753 247.9478 14.73229582199899
CUBESAT XI-V            
1 28895U 05043F   26061.64784810  .00002536  00000+0  40907-3 0  9995
2 28895  98.2814 215.1395 0014355 179.3571 180.7656 14.72280863 86078
CUTE-1.7+APD II (CO-65) 
1 32785U 08021C   26061.88045833  .00009086  00000+0  58977-3 0  9991
2 32785  97.8192  41.2304 0010318  39.4800 320.7177 15.08251734969168
SEEDS II (CO-66)        
1 32791U 08021J   26061.52544139  .00022953  00000+0  82362-3 0  9995
2 32791  97.7503  54.6595 0002730  20.6846 339.4503 15.28701509970974
YUBILEINY (RS30)        
1 32953U 08025A   26061.78670068  .00000049  00000+0  28259-3 0  9995
2 32953  82.4985  61.6189 0019265 180.2952 179.8120 12.43175874806476
KKS-1 (KISEKI)          
1 33499U 09002H   26061.78430989  .00002291  00000+0  29010-3 0  9990
2 33499  98.1190 342.5747 0006471 278.2947  81.7532 14.82796561920429
SWISSCUBE               
1 35932U 09051B   26061.70310119  .00001519  00000+0  31106-3 0  9993
2 35932  98.4106 327.7220 0006594 173.5794 186.5492 14.62235995873598
BEESAT-1                
1 35933U 09051C   26061.72684061  .00001272  00000+0  26627-3 0  9994
2 35933  98.4036 327.6002 0004825 184.8887 175.2267 14.61513291873638
ITUPSAT1                
1 35935U 09051E   26061.69356917  .00001151  00000+0  24857-3 0  9997
2 35935  98.4125 326.8680 0006783 200.9387 159.1536 14.60249665873193
XIWANG-1 (HOPE-1)       
1 36122U 09072B   26061.84504955  .00000343  00000+0  10129-2 0  9991
2 36122 100.3897  17.4359 0008017 114.0765 246.1188 13.16436857779011
O/OREOS (USA 219)       
1 37224U 10062C   26061.76458398  .00003127  00000+0  30397-3 0  9999
2 37224  71.9727 321.3167 0016915 268.2810  91.6422 14.93235206100757
JUGNU                   
1 37839U 11058B   26061.80329812  .00000502  00000+0  12266-3 0  9999
2 37839  19.9596 234.7346 0018632 341.6497 143.8293 14.13737032743953
SRMSAT                  
1 37841U 11058D   26061.50080932  .00000475  00000+0  11391-3 0  9993
2 37841  19.9732 345.2138 0011888 110.4701  67.1482 14.11544423742721
STRAND-1                
1 39090U 13009E   26061.46258252  .00000465  00000+0  17107-3 0  9996
2 39090  98.3880 244.3341 0008604 182.8724 177.2415 14.37087200681734
ZACUBE-1 (TSHEPISOSAT)  
1 39417U 13066B   26061.86043747  .00006102  00000+0  48380-3 0  9998
2 39417  97.8182  23.6506 0041555 243.0931 116.6044 15.00236927664783
GOMX-1                  
1 39430U 13066Q   26061.80947065  .00002226  00000+0  34024-3 0  9996
2 39430  97.6574 268.9434 0130659  59.4061 301.9958 14.69065451654296
CUBEBUG-2 (LO-74)       
1 39440U 13066AA  26061.86115483  .00007706  00000+0  72433-3 0  9998
2 39440  97.8806  10.5236 0059455  21.5397 338.8304 14.92848010661124
FUNCUBE-1 (AO-73)       
1 39444U 13066AE  26061.80574300  .00010543  00000+0  68338-3 0  9995
2 39444  97.8166  31.2276 0036526 203.0732 156.8857 15.07748353663629
UWE-3                   
1 39446U 13066AG  26061.77418278  .00006526  00000+0  57209-3 0  9995
2 39446  97.8592  17.2799 0048822 316.3479  43.3885 14.96081032661660
UNISAT-6                
1 40012U 14033C   26061.67804475  .00003980  00000+0  43566-3 0  9990
2 40012  97.7708 216.4004 0046470  60.5563 300.0279 14.87572265630322
DUCHIFAT-1              
1 40021U 14033M   26061.65992116  .00061132  00000+0  11308-2 0  9999
2 40021  98.0649 107.2642 0006730 103.7113 256.4886 15.48814794639186
QB50P1                  
1 40025U 14033R   26061.58353834  .00010827  00000+0  56154-3 0  9997
2 40025  98.0998  65.3871 0007539 221.3310 138.7351 15.16330216636867
LILACSAT-2              
1 40908U 15049K   26061.85620057  .00020066  00000+0  38883-3 0  9994
2 40908  97.4817  94.8443 0005596 279.9056  80.1562 15.47723029579287
FOX-1A (AO-85)          
1 40967U 15058D   26061.81491425  .00004741  00000+0  43042-3 0  9995
2 40967  64.7735 249.3858 0129272  98.6956 262.8824 14.90282183 97719
CAS-2T & KS-1Q          
1 41847U 16066G   26061.78002362  .00001730  00000+0  24953-3 0  9992
2 41847  98.3900 138.7061 0343826  92.3774 271.6820 14.44443506489438
RADFXSAT (FOX-1B)       
1 43017U 17073E   26061.77332225  .00012615  00000+0  57237-3 0  9990
2 43017  97.4875 291.2158 0155581 336.0986  23.3072 15.10689956449313
DIWATA-2B               
1 43678U 18084H   26061.85105957  .00003407  00000+0  27946-3 0  9998
2 43678  98.1035 253.6074 0011057 148.1299 212.0594 14.99918191400279
ES'HAIL 2               
1 43700U 18090A   26061.72035672  .00000127  00000+0  00000+0 0  9997
2 43700   0.0255 242.7362 0002653 132.4476  70.4158  1.00267779 26605
FOX-1CLIFF (AO-95)      
1 43770U 18099N   26061.68475105  .00013793  00000+0  56810-3 0  9994
2 43770  97.4530 122.4464 0008954  12.8802 347.2662 15.24186888396987
ITASAT                  
1 43786U 18099AE  26061.71949348  .00008385  00000+0  42018-3 0  9996
2 43786  97.4183 115.3895 0012940  11.4547 348.6979 15.17536936396754
JY1SAT (JO-97)          
1 43803U 18099AX  26061.68901688  .00019773  00000+0  68267-3 0  9994
2 43803  97.4273 124.3666 0004609 290.0792  69.9952 15.29981850397320
UWE-4                   
1 43880U 18111E   26061.72119306  .00036009  00000+0  91783-3 0  9997
2 43880  97.5860 345.7590 0008919   5.6381 354.4963 15.39415358394366
TIANYAN 01              
1 44881U 19093C   26061.81893400  .00001199  00000+0  14200-3 0  9994
2 44881  97.7630 136.6197 0015016  78.2601 282.0299 14.86321320335619
RS-44 & BREEZE-KM R/B   
1 44909U 19096E   26061.44574770  .00000016  00000+0  18230-4 0  9998
2 44909  82.5186  50.6292 0218213  34.2189 327.2756 12.79747366288693
SALSAT                  
1 46495U 20068K   26061.53547552  .00011172  00000+0  41124-3 0  9991
2 46495  97.8844  58.2509 0008864 326.6723  33.3956 15.28007427299065
XW-3 (CAS-9)            
1 50466U 21131B   26061.83925963  .00000671  00000+0  22125-3 0  9997
2 50466  98.4969 154.8342 0005130  66.3744 293.7983 14.41240078219794
GREENCUBE (IO-117)      
1 53109U 22080E   26061.72898270 -.00000003  00000+0  00000+0 0  9990
2 53109  70.1617 335.2737 0009044 313.3588  46.6318  6.42583122 85228
UMKA 1 (RS40S)          
1 57172U 23091G   26061.78942608  .00008444  00000+0  40013-3 0  9996
2 57172  97.5196 120.9239 0014455 127.6813 232.5735 15.19470486147840
CUBESX-HSE 3 (RS42S)    
1 57178U 23091N   26061.88617394  .00016111  00000+0  58426-3 0  9991
2 57178  97.5226 126.2886 0012830 108.6839 251.5794 15.28350846148179
MONITOR-3 (RS58S)       
1 57180U 23091Q   26061.89148902  .00013275  00000+0  52472-3 0  9992
2 57180  97.5220 124.6681 0013756 113.3015 246.9672 15.25529265148070
MONITOR-4 (RS57S)       
1 57182U 23091S   26061.87699521  .00013562  00000+0  53463-3 0  9990
2 57182  97.5214 124.6181 0013710 113.7533 246.5144 15.25614079148077
MONITOR-2 (RS39S)       
1 57184U 23091U   26061.88298411  .00006736  00000+0  33570-3 0  9998
2 57184  97.5220 120.8613 0012892 119.6739 240.5780 15.17812734147828
SVYATOBOR 1 (RS60S)     
1 57187U 23091X   26061.87485458  .00011662  00000+0  47436-3 0  9999
2 57187  97.5226 125.1885 0011254 106.0243 254.2234 15.24631339148103
VIZARD-METEO (RS38S)    
1 57189U 23091Z   26061.84247006  .00020287  00000+0  64840-3 0  9994
2 57189  97.5216 129.4201 0009056  93.3547 266.8731 15.32441400148383
NANOZOND 1 (RS49S)      
1 57190U 23091AA  26061.87519240  .00201462  00000+0  15378-2 0  9998
2 57190  97.5096 141.5892 0000706  75.7521 284.3820 15.71591194149206
POLYTECH-UNIVERSE 3 (R*)
1 57191U 23091AB  26061.85788828  .00006835  00000+0  33832-3 0  9990
2 57191  97.5193 120.3436 0017057 136.0441 224.2152 15.17992336147812
UTMN 2 (RS27S)          
1 57203U 23091AP  26061.83295524  .00016175  00000+0  57152-3 0  9997
2 57203  97.5218 127.7375 0009952  97.6347 262.6024 15.29235227148276
KUZGTU 1 (RS47S)        
1 57217U 23091AV  26061.85698140  .00015911  00000+0  59685-3 0  9995
2 57217  97.5201 125.3909 0012953 111.3688 248.8935 15.27236904148130
SONATE-2                
1 59112U 24043Q   26061.36903506  .00042719  00000+0  74240-3 0  9990
2 59112  97.5384 205.9504 0007845 231.8475 128.2070 15.50669853111297
MESAT1                  
1 60209U 24125G   26061.54902947  .00046157  00000+0  74116-3 0  9990
2 60209  97.2465 277.3216 0011180 251.3742 108.6298 15.52835342 92963
OOV-CUBE (TUBSAT-30)    
1 60240U 24128F   26061.77349682  .00004271  00000+0  32804-3 0  9993
2 60240  61.9933 236.4815 0055105 111.0594 249.6402 15.02184323 90129
COLIBRI-S (RS67S)       
1 61746U 24199M   26061.81150000  .00025810  00000+0  58452-3 0  9991
2 61746  97.3174 294.9408 0008132 315.5285  44.5309 15.43064104120989
HORS 3 (RS81S)          
1 61753U 24199U   26061.79479440  .00035931  00000+0  69120-3 0  9997
2 61753  97.3143 295.9825 0006278 323.6639  36.4184 15.47810941121062
HORS 4 (RS82S)          
1 61754U 24199V   26061.81034462  .00043942  00000+0  76807-3 0  9993
2 61754  97.3121 296.6687 0006005 320.5052  39.5762 15.50513365121112
HORIZON (RS59S)         
1 61757U 24199Y   26061.79543403  .00130473  00000+0  11589-2 0  9994
2 61757  97.3091 300.3013 0003301 297.3057  62.7868 15.68122510121346
ARCTICSAT 1 (RS74S)     
1 61762U 24199AD  26061.78972239  .00097847  00000+0  10231-2 0  9992
2 61762  97.3110 299.8603 0003686 293.5937  66.4935 15.64137554121315
SIT-2086                
1 61764U 24199AF  26061.80280556  .00027860  00000+0  54769-3 0  9994
2 61764  97.3139 296.7288 0006356 302.3367  57.7267 15.47232213117951
RUZAEVKA 390 (RS44S)    
1 61766U 24199AH  26061.62672404  .00844467  34052-3  16494-2 0  9993
2 61766  97.2881 303.4007 0001705 153.2138 206.9229 16.00278810118391
HYPERVIEW 1G (RS66S)    
1 61772U 24199AP  26061.81755778  .00072586  00000+0  10030-2 0  9994
2 61772  97.3105 297.7157 0007205 317.0332  43.0360 15.56885987118032
